OBJECT_NAME,OBJECT_ID,EPOCH,MEAN_MOTION,ECCENTRICITY,INCLINATION,RA_OF_ASC_NODE,ARG_OF_PERICENTER,MEAN_ANOMALY,EPHEMERIS_TYPE,CLASSIFICATION_TYPE,NORAD_CAT_ID,ELEMENT_SET_NO,REV_AT_EPOCH,BSTAR,MEAN_MOTION_DOT,MEAN_MOTION_DDOT
HST,1990-037B,2026-06-19T02:22:40.723680,15.30765373,.00017236,28.4721,67.5085,162.4358,197.6298,0,U,20580,999,78886,.1675625E-3,.5359E-4,0
POLAR,1996-013A,2026-06-17T19:22:25.288032,1.29846132,.6471047,79.8548,227.0450,209.0570,89.8865,0,U,23802,999,14486,0,.114E-5,0
SWAS,1998-071A,2026-06-19T06:26:42.027936,15.09635044,.00086631,69.8943,222.1517,257.7487,102.2708,0,U,25560,999,49758,.14192676E-3,.2184E-4,0
CXO,1999-040B,2026-06-21T00:32:21.481440,0.37807394,.78283298,56.2474,116.4966,310.2765,0.2930,0,U,25867,999,1733,0,.453E-5,0
XMM-NEWTON,1999-066A,2026-06-20T08:11:38.414112,0.50127883,.467233,64.4680,282.9447,64.8598,0.1279,0,U,25989,999,2301,0,-.33E-6,0
TERRA,1999-068A,2026-06-19T06:57:16.279200,14.61104555,.00017575,97.9455,219.7527,182.5355,303.4138,0,U,25994,999,40991,.66439481E-4,.282E-5,0
CLUSTER II-FM7 (SAMBA),2000-041A,2026-06-21T14:25:43.507200,0.44827446,.90601568,149.9156,51.6296,268.8489,359.5243,0,U,26410,999,2032,0,.47E-4,0
CLUSTER II-FM8 (TANGO),2000-045B,2026-06-15T04:30:08.872416,0.44418308,.90570043,150.1504,51.7507,268.7261,2.8044,0,U,26464,999,2030,0,.11725E-3,0
ODIN,2001-007A,2026-06-19T01:30:15.655680,15.76368070,.00066542,97.3817,211.1262,141.9778,218.1959,0,U,26702,999,38969,.97536531E-3,.155995E-2,0
TIMED,2001-055B,2026-06-19T05:11:05.294400,14.95297974,.00012312,74.0672,230.9336,332.2181,27.8938,0,U,26998,999,33112,.73527908E-4,.771E-5,0
CORIOLIS,2003-001A,2026-06-19T07:28:01.869600,14.19945297,.00135021,98.7125,177.1635,202.3818,157.6771,0,U,27640,999,21452,.51281366E-4,.65E-6,0
SORCE,2003-004A,2026-06-19T06:21:18.241344,15.03721648,.00162281,39.9900,249.8247,65.0499,295.1979,0,U,27651,999,27221,.15381075E-3,.1999E-4,0
MOST,2003-031D,2026-06-18T21:37:09.750720,14.21322738,.0008779,98.7044,177.6029,244.9079,115.1187,0,U,27843,999,19095,.36437E-4,.36E-6,0
SCISAT 1,2003-036A,2026-06-19T02:47:42.609696,14.81449163,.00084882,73.9283,167.5095,237.4057,122.6301,0,U,27858,999,23173,.53975136E-4,.386E-5,0
SWIFT,2004-047A,2026-06-19T06:51:39.486816,15.68495737,.00014259,20.5512,168.7076,322.3693,37.6653,0,U,28485,999,18719,.37377835E-3,.45354E-3,0
HINODE (SOLAR-B),2006-041A,2026-06-19T07:08:20.300352,14.68625500,.00159708,98.0545,186.4188,282.4723,77.4695,0,U,29479,999,5518,.96286931E-4,.511E-5,0
SHIJIAN-6 02A (SJ-6 02A),2006-046A,2026-06-19T06:26:28.447584,15.16958644,.00044869,97.6348,211.3509,121.3358,238.8314,0,U,29505,999,7258,.16526876E-3,.3193E-4,0
SHIJIAN-6 02B (SJ-6 02B),2006-046B,2026-06-19T08:17:52.187424,15.01381082,.00154177,97.7152,199.3915,54.3304,305.9353,0,U,29506,999,7106,.68083491E-4,.819E-5,0
FGRST (GLAST),2008-029A,2026-06-19T06:12:06.913440,15.23953038,.00079628,25.5803,190.1000,354.0771,5.9672,0,U,33053,999,99615,.74272826E-4,.2185E-4,0
SDO,2010-005A,2026-06-17T09:50:26.387232,1.00269958,.00017341,34.6527,86.3378,44.0102,180.8312,0,U,36395,999,6006,0,-.96E-6,0
CRYOSAT 2,2010-013A,2026-06-19T06:53:12.800544,14.51899894,.00021361,92.0357,277.8118,90.5107,269.6345,0,U,36508,999,85838,.45910222E-4,.188E-5,0
X-SAT,2011-015C,2026-06-19T06:16:31.808064,14.25207625,.00137826,98.3514,147.1865,342.5392,17.5312,0,U,37389,999,78797,.14077611E-3,.29E-5,0
GCOM-W1 (SHIZUKU),2012-025A,2026-06-19T07:17:47.348736,14.57126275,.00017588,98.2021,110.8276,73.8217,14.3998,0,U,38337,999,74934,.87125029E-4,.347E-5,0
NUSTAR,2012-031A,2026-06-19T08:00:01.999872,15.08821917,.00069247,6.0286,18.0463,149.6464,108.0545,0,U,38358,999,130,.13791795E-3,.309E-4,0
NEOSSAT,2013-009D,2026-06-19T02:11:06.794304,14.35826971,.00099557,98.4178,350.0784,237.4333,122.5892,0,U,39089,999,69701,.49555181E-4,.101E-5,0
BRITE-AUSTRIA,2013-009F,2026-06-19T07:08:40.083360,14.36542792,.00092316,98.3996,349.6811,229.4697,130.5686,0,U,39091,999,69735,.5550137E-4,.12E-5,0
IRIS,2013-033A,2026-06-19T01:12:36.940320,14.85888192,.0023414,97.9329,9.3216,315.4826,44.4508,0,U,39197,999,70065,.92428921E-4,.753E-5,0
HISAKI (SPRINT-A),2013-049A,2026-06-19T06:21:11.565216,13.55544904,.01368481,29.7178,209.4503,33.6977,327.2209,0,U,39253,999,63170,.52486531E-4,.101E-5,0
CASSIOPE,2013-055A,2026-06-19T06:16:14.512512,15.25366701,.02921109,80.9136,64.2027,55.4962,307.3484,0,U,39265,999,66798,.50202868E-3,.46101E-3,-.46103E-6
STSAT-3,2013-066G,2026-06-19T05:50:40.654176,15.02767840,.00111,97.6229,140.0989,39.4906,320.7126,0,U,39422,999,68451,.22381924E-3,.2936E-4,0
SWARM B,2013-067A,2026-06-19T07:03:43.228512,15.28562245,.00032468,87.7442,341.6760,84.6645,275.4975,0,U,39451,999,68356,.99215208E-4,.2791E-4,0
